ONEWEB-0196             
1 48218U 21031J   25292.15201900 -.00000068  00000+0 -21913-3 0  9992
2 48218  87.9035 337.7249 0002029  96.5448 263.5913 13.14503859216569
ONEWEB-0183             
1 48219U 21031K   25292.20277563  .00000277  00000+0  71178-3 0  9995
2 48219  87.9026 337.7231 0001809  90.5329 269.6008 13.14502473216662
ONEWEB-0185             
1 48220U 21031L   25292.15280575 -.00000176  00000+0 -50799-3 0  9994
2 48220  87.9035 337.7012 0002061  86.0895 274.0470 13.14500962216585
ONEWEB-0187             
1 48221U 21031M   25292.13285968  .00000183  00000+0  46008-3 0  9998
2 48221  87.9034 337.7516 0002085  92.1596 267.9773 13.14504397216590
ONEWEB-0192             
1 48222U 21031N   25292.17898640  .00000131  00000+0  31833-3 0  9993
2 48222  87.9026 337.7345 0001959  99.1565 260.9786 13.14502628216518
ONEWEB-0219             
1 48223U 21031P   25292.15836612 -.00000147  00000+0 -42975-3 0  9991
2 48223  87.9035 337.7119 0002051  91.2296 268.9069 13.14502963216712
ONEWEB-0202             
1 48224U 21031Q   25292.13934884  .00000075  00000+0  16825-3 0  9993
2 48224  87.9031 337.7302 0002571 105.4206 254.7208 13.14502271216696
ONEWEB-0204             
1 48225U 21031R   25292.17342623 -.00000033  00000+0 -12257-3 0  9993
2 48225  87.9028 337.7115 0001701  88.8730 271.2595 13.14503497216598
